NORAD_CAT_ID,OBJECT_NAME,OBJECT_TYPE,EPOCH,MEAN_MOTION,ECCENTRICITY,INCLINATION,RA_OF_ASC_NODE,ARG_OF_PERICENTER,MEAN_ANOMALY,BSTAR,MEAN_MOTION_DOT,MEAN_MOTION_DDOT,TLE_LINE0,TLE_LINE1,TLE_LINE2,SEMIMAJOR_AXIS,PERIOD,APOGEE,PERIGEE,DECAYED
40536,KOMPSAT 3A,PAYLOAD,2020-02-27 20:20:09,15.12205399,0.0002398,97.5347,359.7554,105.7002,338.7212,5.7387e-05,9.26e-06,0.0,0 KOMPSAT 3A,1 40536U 15014A   20058.84732844  .00000926  00000-0  57387-4 0  9995,2 40536  97.5347 359.7554 0002398 105.7002 338.7212 15.12205399272004,6907.613,95.225,531.134,527.821,0.0
40536,KOMPSAT 3A,PAYLOAD,2020-02-28 04:23:42,15.12206495,0.0002437,97.5349,0.0869,103.8401,7.496,6.5812e-05,1.072e-05,0.0,0 KOMPSAT 3A,1 40536U 15014A   20059.18312752  .00001072  00000-0  65812-4 0  9990,2 40536  97.5349   0.0869 0002437 103.8401   7.4960 15.12206495272050,6907.609,95.225,531.158,527.7909999999998,0.0
40536,KOMPSAT 3A,PAYLOAD,2020-02-28 12:23:29,15.12205265,0.00024700000000000004,97.5346,0.4153,103.74700000000001,20.3143,3.485e-05,5.37e-06,0.0,0 KOMPSAT 3A,1 40536U 15014A   20059.51631933  .00000537  00000-0  34850-4 0  9995,2 40536  97.5346   0.4153 0002470 103.7470  20.3143 15.12205265272106,6907.613,95.225,531.184,527.7719999999998,0.0
40536,KOMPSAT 3A,PAYLOAD,2020-02-28 20:09:21,15.12205976,0.0002471,97.5345,0.7345,101.8079,342.3230000000001,3.9655e-05,6.2e-06,0.0,0 KOMPSAT 3A,1 40536U 15014A   20059.83983192  .00000620  00000-0  39655-4 0  9998,2 40536  97.5345   0.7345 0002471 101.8079 342.3230 15.12205976272154,6907.611,95.225,531.183,527.769,0.0
40536,KOMPSAT 3A,PAYLOAD,2020-02-29 04:13:15,15.12206339,0.00025059999999999997,97.5345,1.0659999999999998,99.2891,13.097999999999999,3.8939e-05,6.08e-06,0.0,0 KOMPSAT 3A,1 40536U 15014A   20060.17587780  .00000608  00000-0  38939-4 0  9990,2 40536  97.5345   1.0660 0002506  99.2891  13.0980 15.12206339272203,6907.61,95.225,531.206,527.744,0.0
40536,KOMPSAT 3A,PAYLOAD,2020-02-29 14:01:06,15.12205817,0.00025289999999999997,97.5342,1.4685,100.1258,73.1818,2.6431999999999997e-05,3.92e-06,0.0,0 KOMPSAT 3A,1 40536U 15014A   20060.58409830  .00000392  00000-0  26432-4 0  9999,2 40536  97.5342   1.4685 0002529 100.1258  73.1818 15.12205817272268,6907.611999999999,95.225,531.2230000000002,527.73,0.0
40536,KOMPSAT 3A,PAYLOAD,2020-02-29 19:58:48,15.12205991,0.0002545,97.5342,1.7135,99.3864,345.3508,2.5969e-05,3.84e-06,0.0,0 KOMPSAT 3A,1 40536U 15014A   20060.83250016  .00000384  00000-0  25969-4 0  9992,2 40536  97.5342   1.7135 0002545  99.3864 345.3508 15.12205991272309,6907.611,95.225,531.234,527.7180000000002,0.0
40536,KOMPSAT 3A,PAYLOAD,2020-03-01 04:02:39,15.12206343,0.00025590000000000004,97.5342,2.045,98.0515,14.7455,2.6536999999999997e-05,3.94e-06,0.0,0 KOMPSAT 3A,1 40536U 15014A   20061.16850976  .00000394  00000-0  26537-4 0  9993,2 40536  97.5342   2.0450 0002559  98.0515  14.7455 15.12206343272352,6907.61,95.225,531.243,527.707,0.0
40536,KOMPSAT 3A,PAYLOAD,2020-03-01 11:58:43,15.12206259,0.00025610000000000005,97.53399999999999,2.3706,97.22200000000001,14.2456,2.287e-05,3.31e-06,0.0,0 KOMPSAT 3A,1 40536U 15014A   20061.49911767  .00000331  00000-0  22870-4 0  9992,2 40536  97.5340   2.3706 0002561  97.2220  14.2456 15.12206259272402,6907.61,95.225,531.244,527.706,0.0
40536,KOMPSAT 3A,PAYLOAD,2020-03-01 19:46:15,15.12206525,0.0002552,97.53399999999999,2.6913,96.1984,341.68300000000005,2.2946e-05,3.32e-06,0.0,0 KOMPSAT 3A,1 40536U 15014A   20061.82379627  .00000332  00000-0  22946-4 0  9997,2 40536  97.5340   2.6913 0002552  96.1984 341.6830 15.12206525272454,6907.609,95.225,531.237,527.712,0.0
40536,KOMPSAT 3A,PAYLOAD,2020-03-02 03:52:11,15.12206492,0.00025580000000000004,97.53399999999999,3.0239999999999996,95.8067,17.9761,2.0486e-05,2.8999999999999998e-06,0.0,0 KOMPSAT 3A,1 40536U 15014A   20062.16124735  .00000290  00000-0  20486-4 0  9993,2 40536  97.5340   3.0240 0002558  95.8067  17.9761 15.12206492272501,6907.609,95.225,531.241,527.707,0.0
40536,KOMPSAT 3A,PAYLOAD,2020-03-02 11:48:03,15.12206047,0.0002571,97.5338,3.3497,95.6643,15.9908,1.5178e-05,1.98e-06,0.0,0 KOMPSAT 3A,1 40536U 15014A   20062.49170884  .00000198  00000-0  15178-4 0  9994,2 40536  97.5338   3.3497 0002571  95.6643  15.9908 15.12206047272550,6907.611,95.225,531.252,527.7,0.0
40536,KOMPSAT 3A,PAYLOAD,2020-03-02 19:37:13,15.12206276,0.0002552,97.5336,3.6713,95.2326,348.9963,1.556e-05,2.05e-06,0.0,0 KOMPSAT 3A,1 40536U 15014A   20062.81751965  .00000205  00000-0  15560-4 0  9999,2 40536  97.5336   3.6713 0002552  95.2326 348.9963 15.12206276272605,6907.61,95.225,531.238,527.712,0.0
40536,KOMPSAT 3A,PAYLOAD,2020-03-03 11:37:23,15.12205869,0.0002566,97.5333,4.3287,94.228,17.6297,1.0413e-05,1.16e-06,0.0,0 KOMPSAT 3A,1 40536U 15014A   20063.48430278  .00000116  00000-0  10413-4 0  9997,2 40536  97.5333   4.3287 0002566  94.2280  17.6297 15.12205869272707,6907.611,95.225,531.249,527.7040000000002,0.0
40536,KOMPSAT 3A,PAYLOAD,2020-03-03 19:26:27,15.1220584,0.0002548,97.5332,4.6501,93.8869,350.14,9.418300000000001e-06,9.9e-07,0.0,0 KOMPSAT 3A,1 40536U 15014A   20063.81003951  .00000099  00000-0  94183-5 0  9995,2 40536  97.5332   4.6501 0002548  93.8869 350.1400 15.12205840272751,6907.611,95.225,531.237,527.716,0.0
40536,KOMPSAT 3A,PAYLOAD,2020-03-04 11:25:26,15.12205523,0.00025469999999999996,97.5331,5.3071,91.0042,16.1738,6.319e-06,4.5e-07,0.0,0 KOMPSAT 3A,1 40536U 15014A   20064.47599981  .00000045  00000-0  63190-5 0  9996,2 40536  97.5331   5.3071 0002547  91.0042  16.1738 15.12205523272854,6907.611999999999,95.225,531.237,527.7180000000002,0.0
40536,KOMPSAT 3A,PAYLOAD,2020-03-04 19:15:51,15.12205206,0.00025810000000000004,97.53299999999999,5.6294,88.7992,355.6905,2.9352999999999997e-06,-1.3e-07,0.0,0 KOMPSAT 3A,1 40536U 15014A   20064.80268206 -.00000013  00000-0  29353-5 0  9995,2 40536  97.5330   5.6294 0002581  88.7992 355.6905 15.12205206272909,6907.613,95.225,531.261,527.696,0.0
40536,KOMPSAT 3A,PAYLOAD,2020-03-05 03:23:51,15.12205161,0.00025830000000000004,97.53299999999999,5.9638,87.85600000000002,40.3176,2.1559999999999998e-06,-2.7e-07,0.0,0 KOMPSAT 3A,1 40536U 15014A   20065.14156373 -.00000027  00000-0  21560-5 0  9991,2 40536  97.5330   5.9638 0002583  87.8560  40.3176 15.12205161272950,6907.614000000001,95.225,531.263,527.694,0.0
40536,KOMPSAT 3A,PAYLOAD,2020-03-05 08:06:37,15.12205182,0.0002605,97.5329,6.1575,88.3658,28.1883,1.9386e-06,-3e-07,0.0,0 KOMPSAT 3A,1 40536U 15014A   20065.33793917 -.00000030  00000-0  19386-5 0  9990,2 40536  97.5329   6.1575 0002605  88.3658  28.1883 15.12205182272985,6907.613,95.225,531.278,527.679,0.0
40536,KOMPSAT 3A,PAYLOAD,2020-03-05 19:04:55,15.12205672,0.00025669999999999995,97.5328,6.6083,88.8569,354.8274,4.5763e-06,1.5e-07,0.0,0 KOMPSAT 3A,1 40536U 15014A   20065.79508983  .00000015  00000-0  45763-5 0  9997,2 40536  97.5328   6.6083 0002567  88.8569 354.8274 15.12205672273052,6907.611999999999,95.225,531.25,527.7040000000002,0.0
40536,KOMPSAT 3A,PAYLOAD,2020-03-06 03:09:39,15.12205886,0.00025580000000000004,97.5327,6.9403,87.6871,27.3522,5.3188e-06,2.8e-07,0.0,0 KOMPSAT 3A,1 40536U 15014A   20066.13170498  .00000028  00000-0  53188-5 0  9996,2 40536  97.5327   6.9403 0002558  87.6871  27.3522 15.12205886273104,6907.611,95.225,531.243,527.7090000000002,0.0
40536,KOMPSAT 3A,PAYLOAD,2020-03-06 11:04:46,15.12206233,0.0002582,97.5328,7.2657,87.2955,22.8329,7.0234e-06,5.7e-07,0.0,0 KOMPSAT 3A,1 40536U 15014A   20066.46165396  .00000057  00000-0  70234-5 0  9996,2 40536  97.5328   7.2657 0002582  87.2955  22.8329 15.12206233273153,6907.61,95.225,531.259,527.692,0.0
40536,KOMPSAT 3A,PAYLOAD,2020-03-06 18:54:10,15.12207128,0.0002519,97.5328,7.5871,85.8955,357.6803,1.2257e-05,1.48e-06,0.0,0 KOMPSAT 3A,1 40536U 15014A   20066.78762446  .00000148  00000-0  12257-4 0  9991,2 40536  97.5328   7.5871 0002519  85.8955 357.6803 15.12207128273204,6907.608,95.225,531.2130000000002,527.7330000000002,0.0
40536,KOMPSAT 3A,PAYLOAD,2020-03-07 02:53:31,15.12207693,0.0002497,97.5329,7.9156,85.5735,9.0115,1.4857e-05,1.93e-06,0.0,0 KOMPSAT 3A,1 40536U 15014A   20067.12049922  .00000193  00000-0  14857-4 0  9995,2 40536  97.5329   7.9156 0002497  85.5735   9.0115 15.12207693273259,6907.606,95.225,531.196,527.746,0.0
40536,KOMPSAT 3A,PAYLOAD,2020-03-07 10:53:47,15.12208439,0.00025580000000000004,97.5329,8.2447,84.6066,24.5211,1.8623e-05,2.58e-06,0.0,0 KOMPSAT 3A,1 40536U 15014A   20067.45402318  .00000258  00000-0  18623-4 0  9990,2 40536  97.5329   8.2447 0002558  84.6066  24.5211 15.12208439273305,6907.604,95.225,531.236,527.702,0.0
40536,KOMPSAT 3A,PAYLOAD,2020-03-07 20:12:45,15.12209614,0.0002604,97.5331,8.6274,88.709,332.274,2.514e-05,3.7000000000000006e-06,0.0,0 KOMPSAT 3A,1 40536U 15014A   20067.84219424  .00000370  00000-0  25140-4 0  9994,2 40536  97.5331   8.6274 0002604  88.7090 332.2740 15.12209614273362,6907.6,95.225,531.264,527.6659999999998,0.0
40536,KOMPSAT 3A,PAYLOAD,2020-03-08 02:51:14,15.12210326,0.0002563,97.5331,8.9003,90.8543,35.6202,2.8519000000000013e-05,4.28e-06,0.0,0 KOMPSAT 3A,1 40536U 15014A   20068.11891225  .00000428  00000-0  28519-4 0  9997,2 40536  97.5331   8.9003 0002563  90.8543  35.6202 15.12210326273400,6907.598000000001,95.225,531.2330000000002,527.692,0.0
40536,KOMPSAT 3A,PAYLOAD,2020-03-08 20:01:07,15.12212277,0.00025610000000000005,97.5332,9.6061,89.541,327.9906,3.8073e-05,5.93e-06,0.0,0 KOMPSAT 3A,1 40536U 15014A   20068.83411113  .00000593  00000-0  38073-4 0  9999,2 40536  97.5332   9.6061 0002561  89.5410 327.9906 15.12212277273516,6907.592,95.225,531.226,527.688,0.0
40536,KOMPSAT 3A,PAYLOAD,2020-03-09 12:02:51,15.12213529,0.0002615,97.5334,10.2654,88.6251,2.4712,4.1566e-05,6.54e-06,0.0,0 KOMPSAT 3A,1 40536U 15014A   20069.50198135 +.00000654 +00000-0 +41566-4 0  9999,2 40536 097.5334 010.2654 0002615 088.6251 002.4712 15.12213529273619,6907.5880000000025,95.225,531.259,527.6469999999998,0.0
